[
    {
        "CCSDS_OMM_VERS": "2.0",
        "COMMENT": "GENERATED VIA SPACE-TRACK.ORG API",
        "CREATION_DATE": "2023-07-12T06:26:12",
        "ORIGINATOR": "18 SPCS",
        "OBJECT_NAME": "THOR ABLESTAR DEB",
        "OBJECT_ID": "1961-015M",
        "CENTER_NAME": "EARTH",
        "REF_FRAME": "TEME",
        "TIME_SYSTEM": "UTC",
        "MEAN_ELEMENT_THEORY": "SGP4",
        "EPOCH": "2023-07-11T22:36:32.829696",
        "MEAN_MOTION": "14.41131325",
        "ECCENTRICITY": "0.00625630",
        "INCLINATION": "66.8305",
        "RA_OF_ASC_NODE": "281.9037",
        "ARG_OF_PERICENTER": "114.1892",
        "MEAN_ANOMALY": "246.5770",
        "EPHEMERIS_TYPE": "0",
        "CLASSIFICATION_TYPE": "U",
        "NORAD_CAT_ID": "127",
        "ELEMENT_SET_NO": "999",
        "REV_AT_EPOCH": "21205",
        "BSTAR": "0.00051199000000",
        "MEAN_MOTION_DOT": "0.00001604",
        "MEAN_MOTION_DDOT": "0.0000000000000",
        "SEMIMAJOR_AXIS": "7132.900",
        "PERIOD": "99.921",
        "APOAPSIS": "799.391",
        "PERIAPSIS": "710.139",
        "OBJECT_TYPE": "DEBRIS",
        "RCS_SIZE": "MEDIUM",
        "COUNTRY_CODE": "US",
        "LAUNCH_DATE": "1961-06-29",
        "SITE": "AFETR",
        "DECAY_DATE": null,
        "FILE": "3955653",
        "GP_ID": "234859963",
        "TLE_LINE0": "0 THOR ABLESTAR DEB",
        "TLE_LINE1": "1   127U 61015M   23192.94204664  .00001604  00000-0  51199-3 0  9994",
        "TLE_LINE2": "2   127  66.8305 281.9037 0062563 114.1892 246.5770 14.41131325212054"
    },
    {
        "CCSDS_OMM_VERS": "2.0",
        "COMMENT": "GENERATED VIA SPACE-TRACK.ORG API",
        "CREATION_DATE": "2023-07-12T06:26:12",
        "ORIGINATOR": "18 SPCS",
        "OBJECT_NAME": "THOR ABLESTAR DEB",
        "OBJECT_ID": "1961-015N",
        "CENTER_NAME": "EARTH",
        "REF_FRAME": "TEME",
        "TIME_SYSTEM": "UTC",
        "MEAN_ELEMENT_THEORY": "SGP4",
        "EPOCH": "2023-07-11T21:00:33.785856",
        "MEAN_MOTION": "14.01423583",
        "ECCENTRICITY": "0.00977080",
        "INCLINATION": "66.6763",
        "RA_OF_ASC_NODE": "337.7490",
        "ARG_OF_PERICENTER": "329.3765",
        "MEAN_ANOMALY": "30.1636",
        "EPHEMERIS_TYPE": "0",
        "CLASSIFICATION_TYPE": "U",
        "NORAD_CAT_ID": "128",
        "ELEMENT_SET_NO": "999",
        "REV_AT_EPOCH": "16534",
        "BSTAR": "0.00007952400000",
        "MEAN_MOTION_DOT": "0.00000045",
        "MEAN_MOTION_DDOT": "0.0000000000000",
        "SEMIMAJOR_AXIS": "7267.007",
        "PERIOD": "102.753",
        "APOAPSIS": "959.876",
        "PERIAPSIS": "817.867",
        "OBJECT_TYPE": "DEBRIS",
        "RCS_SIZE": "MEDIUM",
        "COUNTRY_CODE": "US",
        "LAUNCH_DATE": "1961-06-29",
        "SITE": "AFETR",
        "DECAY_DATE": null,
        "FILE": "3955615",
        "GP_ID": "234859487",
        "TLE_LINE0": "0 THOR ABLESTAR DEB",
        "TLE_LINE1": "1   128U 61015N   23192.87539104  .00000045  00000-0  79524-4 0  9998",
        "TLE_LINE2": "2   128  66.6763 337.7490 0097708 329.3765  30.1636 14.01423583165345"
    },
    {
        "CCSDS_OMM_VERS": "2.0",
        "COMMENT": "GENERATED VIA SPACE-TRACK.ORG API",
        "CREATION_DATE": "2023-07-12T14:46:12",
        "ORIGINATOR": "18 SPCS",
        "OBJECT_NAME": "THOR ABLESTAR DEB",
        "OBJECT_ID": "1961-015Q",
        "CENTER_NAME": "EARTH",
        "REF_FRAME": "TEME",
        "TIME_SYSTEM": "UTC",
        "MEAN_ELEMENT_THEORY": "SGP4",
        "EPOCH": "2023-07-12T06:19:59.029824",
        "MEAN_MOTION": "13.98913058",
        "ECCENTRICITY": "0.00904380",
        "INCLINATION": "66.7717",
        "RA_OF_ASC_NODE": "26.7133",
        "ARG_OF_PERICENTER": "317.9385",
        "MEAN_ANOMALY": "41.4778",
        "EPHEMERIS_TYPE": "0",
        "CLASSIFICATION_TYPE": "U",
        "NORAD_CAT_ID": "130",
        "ELEMENT_SET_NO": "999",
        "REV_AT_EPOCH": "16217",
        "BSTAR": "0.00007824600000",
        "MEAN_MOTION_DOT": "0.00000038",
        "MEAN_MOTION_DDOT": "0.0000000000000",
        "SEMIMAJOR_AXIS": "7275.698",
        "PERIOD": "102.937",
        "APOAPSIS": "963.363",
        "PERIAPSIS": "831.764",
        "OBJECT_TYPE": "DEBRIS",
        "RCS_SIZE": "MEDIUM",
        "COUNTRY_CODE": "US",
        "LAUNCH_DATE": "1961-06-29",
        "SITE": "AFETR",
        "DECAY_DATE": null,
        "FILE": "3956041",
        "GP_ID": "234869504",
        "TLE_LINE0": "0 THOR ABLESTAR DEB",
        "TLE_LINE1": "1   130U 61015Q   23193.26387766  .00000038  00000-0  78246-4 0  9992",
        "TLE_LINE2": "2   130  66.7717  26.7133 0090438 317.9385  41.4778 13.98913058162177"
    },
    {
        "CCSDS_OMM_VERS": "2.0",
        "COMMENT": "GENERATED VIA SPACE-TRACK.ORG API",
        "CREATION_DATE": "2023-07-11T06:36:12",
        "ORIGINATOR": "18 SPCS",
        "OBJECT_NAME": "THOR ABLESTAR DEB",
        "OBJECT_ID": "1961-015R",
        "CENTER_NAME": "EARTH",
        "REF_FRAME": "TEME",
        "TIME_SYSTEM": "UTC",
        "MEAN_ELEMENT_THEORY": "SGP4",
        "EPOCH": "2023-07-11T04:38:01.322304",
        "MEAN_MOTION": "14.01006082",
        "ECCENTRICITY": "0.00734980",
        "INCLINATION": "66.7345",
        "RA_OF_ASC_NODE": "254.9394",
        "ARG_OF_PERICENTER": "97.7639",
        "MEAN_ANOMALY": "263.1797",
        "EPHEMERIS_TYPE": "0",
        "CLASSIFICATION_TYPE": "U",
        "NORAD_CAT_ID": "131",
        "ELEMENT_SET_NO": "999",
        "REV_AT_EPOCH": "15372",
        "BSTAR": "0.00009636500000",
        "MEAN_MOTION_DOT": "0.00000069",
        "MEAN_MOTION_DDOT": "0.0000000000000",
        "SEMIMAJOR_AXIS": "7268.450",
        "PERIOD": "102.783",
        "APOAPSIS": "943.737",
        "PERIAPSIS": "836.894",
        "OBJECT_TYPE": "DEBRIS",
        "RCS_SIZE": "MEDIUM",
        "COUNTRY_CODE": "US",
        "LAUNCH_DATE": "1961-06-29",
        "SITE": "AFETR",
        "DECAY_DATE": null,
        "FILE": "3954918",
        "GP_ID": "234843439",
        "TLE_LINE0": "0 THOR ABLESTAR DEB",
        "TLE_LINE1": "1   131U 61015R   23192.19307086  .00000069  00000-0  96365-4 0  9997",
        "TLE_LINE2": "2   131  66.7345 254.9394 0073498  97.7639 263.1797 14.01006082153721"
    },
    {
        "CCSDS_OMM_VERS": "2.0",
        "COMMENT": "GENERATED VIA SPACE-TRACK.ORG API",
        "CREATION_DATE": "2023-07-11T14:16:12",
        "ORIGINATOR": "18 SPCS",
        "OBJECT_NAME": "THOR ABLESTAR DEB",
        "OBJECT_ID": "1961-015S",
        "CENTER_NAME": "EARTH",
        "REF_FRAME": "TEME",
        "TIME_SYSTEM": "UTC",
        "MEAN_ELEMENT_THEORY": "SGP4",
        "EPOCH": "2023-07-11T06:03:50.065920",
        "MEAN_MOTION": "13.94451222",
        "ECCENTRICITY": "0.00769630",
        "INCLINATION": "66.6606",
        "RA_OF_ASC_NODE": "100.9482",
        "ARG_OF_PERICENTER": "198.3707",
        "MEAN_ANOMALY": "161.4591",
        "EPHEMERIS_TYPE": "0",
        "CLASSIFICATION_TYPE": "U",
        "NORAD_CAT_ID": "132",
        "ELEMENT_SET_NO": "999",
        "REV_AT_EPOCH": "15469",
        "BSTAR": "0.00004636200000",
        "MEAN_MOTION_DOT": "-0.00000015",
        "MEAN_MOTION_DDOT": "0.0000000000000",
        "SEMIMAJOR_AXIS": "7291.210",
        "PERIOD": "103.266",
        "APOAPSIS": "969.191",
        "PERIAPSIS": "856.960",
        "OBJECT_TYPE": "DEBRIS",
        "RCS_SIZE": "MEDIUM",
        "COUNTRY_CODE": "US",
        "LAUNCH_DATE": "1961-06-29",
        "SITE": "AFETR",
        "DECAY_DATE": null,
        "FILE": "3955072",
        "GP_ID": "234846725",
        "TLE_LINE0": "0 THOR ABLESTAR DEB",
        "TLE_LINE1": "1   132U 61015S   23192.25266280 -.00000015  00000-0  46362-4 0  9999",
        "TLE_LINE2": "2   132  66.6606 100.9482 0076963 198.3707 161.4591 13.94451222154693"
    },
    {
        "CCSDS_OMM_VERS": "2.0",
        "COMMENT": "GENERATED VIA SPACE-TRACK.ORG API",
        "CREATION_DATE": "2023-07-11T22:36:12",
        "ORIGINATOR": "18 SPCS",
        "OBJECT_NAME": "THOR ABLESTAR DEB",
        "OBJECT_ID": "1961-015T",
        "CENTER_NAME": "EARTH",
        "REF_FRAME": "TEME",
        "TIME_SYSTEM": "UTC",
        "MEAN_ELEMENT_THEORY": "SGP4",
        "EPOCH": "2023-07-11T20:44:23.821440",
        "MEAN_MOTION": "14.19468004",
        "ECCENTRICITY": "0.00617110",
        "INCLINATION": "67.1161",
        "RA_OF_ASC_NODE": "56.0094",
        "ARG_OF_PERICENTER": "272.4502",
        "MEAN_ANOMALY": "86.9530",
        "EPHEMERIS_TYPE": "0",
        "CLASSIFICATION_TYPE": "U",
        "NORAD_CAT_ID": "133",
        "ELEMENT_SET_NO": "999",
        "REV_AT_EPOCH": "18171",
        "BSTAR": "0.00042064000000",
        "MEAN_MOTION_DOT": "0.00000824",
        "MEAN_MOTION_DDOT": "0.0000000000000",
        "SEMIMAJOR_AXIS": "7205.290",
        "PERIOD": "101.446",
        "APOAPSIS": "871.619",
        "PERIAPSIS": "782.690",
        "OBJECT_TYPE": "DEBRIS",
        "RCS_SIZE": "MEDIUM",
        "COUNTRY_CODE": "US",
        "LAUNCH_DATE": "1961-06-29",
        "SITE": "AFETR",
        "DECAY_DATE": null,
        "FILE": "3955490",
        "GP_ID": "234856032",
        "TLE_LINE0": "0 THOR ABLESTAR DEB",
        "TLE_LINE1": "1   133U 61015T   23192.86416460  .00000824  00000-0  42064-3 0  9995",
        "TLE_LINE2": "2   133  67.1161  56.0094 0061711 272.4502  86.9530 14.19468004181719"
    }]